{
    "links": {
        "self": "http://www.neowsapp.com/rest/v1/neo/3698569?api_key=iIulBulltgU6a56xZRHN4H3l9WmuAYTsLGpBGhQ2"
    },
    "id": "3698569",
    "neo_reference_id": "3698569",
    "name": "(2014 JX79)",
    "designation": "2014 JX79",
    "nasa_jpl_url": "http://ssd.jpl.nasa.gov/sbdb.cgi?sstr=3698569",
    "absolute_magnitude_h": 28.5,
    "estimated_diameter": {
        "kilometers": {
            "estimated_diameter_min": 0.0053034072,
            "estimated_diameter_max": 0.0118587791
        },
        "meters": {
            "estimated_diameter_min": 5.3034072332,
            "estimated_diameter_max": 11.8587790858
        },
        "miles": {
            "estimated_diameter_min": 0.0032953835,
            "estimated_diameter_max": 0.0073687014
        },
        "feet": {
            "estimated_diameter_min": 17.3996305869,
            "estimated_diameter_max": 38.9067567758
        }
    },
    "is_potentially_hazardous_asteroid": false,
    "close_approach_data": [
        {
            "close_approach_date": "2014-04-27",
            "close_approach_date_full": "2014-Apr-27 14:38",
            "epoch_date_close_approach": 1398609480000,
            "relative_velocity": {
                "kilometers_per_second": "8.6624687268",
                "kilometers_per_hour": "31184.8874163843",
                "miles_per_hour": "19377.0762949195"
            },
            "miss_distance": {
                "astronomical": "0.0108616312",
                "lunar": "4.2251745368",
                "kilometers": "1624876.892245544",
                "miles": "1009651.6826707472"
            },
            "orbiting_body": "Earth"
        }
    ],
    "orbital_data": {
        "orbit_id": "6",
        "orbit_determination_date": "2017-04-06 08:40:28",
        "first_observation_date": "2014-05-05",
        "last_observation_date": "2014-05-06",
        "data_arc_in_days": 1,
        "observations_used": 15,
        "orbit_uncertainty": "9",
        "minimum_orbit_intersection": ".0108223",
        "jupiter_tisserand_invariant": "4.436",
        "epoch_osculation": "2456783.5",
        "eccentricity": ".3867799064058317",
        "semi_major_axis": "1.508368326724627",
        "inclination": "6.561891221651061",
        "ascending_node_longitude": "41.61091182072416",
        "orbital_period": "676.642906646041",
        "perihelion_distance": ".924961766488555",
        "perihelion_argument": "129.0797079673404",
        "aphelion_distance": "2.0917748869607",
        "perihelion_time": "2456737.376680458952",
        "mean_anomaly": "24.53937648896867",
        "mean_motion": ".5320383860734386",
        "equinox": "J2000",
        "orbit_class": {
            "orbit_class_type": "APO",
            "orbit_class_description": "Near-Earth asteroid orbits which cross the Earth’s orbit similar to that of 1862 Apollo",
            "orbit_class_range": "a (semi-major axis) > 1.0 AU; q (perihelion) < 1.017 AU"
        }
    },
    "is_sentry_object": false
}